{
  "type": "FeatureCollection",
  "features": [
    {
      "type": "Feature",
      "properties": {
        "norad_id": 66638,
        "name": "STARLINK-35972",
        "group": "last-30-days",
        "lat": -18.481816483370757,
        "lon": 154.87647136220616,
        "alt_km": 421.5045437410063,
        "timestamp": "2025-12-16T10:53:44.205822+00:00",
        "meta_object_name": "STARLINK-35972",
        "meta_object_id": "2025-271X",
        "meta_epoch": "2025-12-15T22:00:01.999584",
        "meta_mean_motion": 15.49255832,
        "meta_eccentricity": 8.536e-05,
        "meta_inclination": 53.1589,
        "meta_ra_of_asc_node": 171.9592,
        "meta_arg_of_pericenter": 55.1081,
        "meta_mean_anomaly": 163.2077,
        "meta_ephemeris_type": 0,
        "meta_classification_type": "U",
        "meta_norad_cat_id": 66638,
        "meta_element_set_no": 999,
        "meta_rev_at_epoch": 475,
        "meta_bstar": 0.001425051,
        "meta_mean_motion_dot": 0.00079468,
        "meta_mean_motion_ddot": 0,
        "tle_line1": "1 66638U 25271X   25349.91668981  .00079468  00000+0  14251-2 0  9995",
        "tle_line2": "2 66638  53.1589 171.9592 0000853  55.1081 163.2077 15.49255832  4758"
      },
      "geometry": {
        "type": "Point",
        "coordinates": [
          154.87647136220616,
          -18.481816483370757
        ]
      }
    },
    {
      "type": "Feature",
      "properties": {
        "norad_id": 66639,
        "name": "STARLINK-35908",
        "group": "last-30-days",
        "lat": -16.995390342446296,
        "lon": 156.13753717090475,
        "alt_km": 421.565304949293,
        "timestamp": "2025-12-16T10:53:44.205833+00:00",
        "meta_object_name": "STARLINK-35908",
        "meta_object_id": "2025-271Y",
        "meta_epoch": "2025-12-15T22:00:01.999584",
        "meta_mean_motion": 15.49252547,
        "meta_eccentricity": 9.515e-05,
        "meta_inclination": 53.1589,
        "meta_ra_of_asc_node": 171.9547,
        "meta_arg_of_pericenter": 74.8716,
        "meta_mean_anomaly": 145.3655,
        "meta_ephemeris_type": 0,
        "meta_classification_type": "U",
        "meta_norad_cat_id": 66639,
        "meta_element_set_no": 999,
        "meta_rev_at_epoch": 475,
        "meta_bstar": 0.0014431779,
        "meta_mean_motion_dot": 0.00080486,
        "meta_mean_motion_ddot": 0,
        "tle_line1": "1 66639U 25271Y   25349.91668981  .00080486  00000+0  14432-2 0  9999",
        "tle_line2": "2 66639  53.1589 171.9547 0000951  74.8716 145.3655 15.49252547  4754"
      },
      "geometry": {
        "type": "Point",
        "coordinates": [
          156.13753717090475,
          -16.995390342446296
        ]
      }
    },
    {
      "type": "Feature",
      "properties": {
        "norad_id": 66640,
        "name": "STARLINK-35921",
        "group": "last-30-days",
        "lat": -15.499614618400338,
        "lon": 157.38073849039117,
        "alt_km": 421.4142512540702,
        "timestamp": "2025-12-16T10:53:44.205843+00:00",
        "meta_object_name": "STARLINK-35921",
        "meta_object_id": "2025-271Z",
        "meta_epoch": "2025-12-15T22:00:01.999584",
        "meta_mean_motion": 15.49254395,
        "meta_eccentricity": 0.00012182,
        "meta_inclination": 53.159,
        "meta_ra_of_asc_node": 171.9509,
        "meta_arg_of_pericenter": 74.7899,
        "meta_mean_anomaly": 147.3633,
        "meta_ephemeris_type": 0,
        "meta_classification_type": "U",
        "meta_norad_cat_id": 66640,
        "meta_element_set_no": 999,
        "meta_rev_at_epoch": 475,
        "meta_bstar": 0.0014472077,
        "meta_mean_motion_dot": 0.0008072,
        "meta_mean_motion_ddot": 0,
        "tle_line1": "1 66640U 25271Z   25349.91668981  .00080720  00000+0  14472-2 0  9996",
        "tle_line2": "2 66640  53.1590 171.9509 0001218  74.7899 147.3633 15.49254395  4755"
      },
      "geometry": {
        "type": "Point",
        "coordinates": [
          157.38073849039117,
          -15.499614618400338
        ]
      }
    },
    {
      "type": "Feature",
      "properties": {
        "norad_id": 66641,
        "name": "STARLINK-35923",
        "group": "last-30-days",
        "lat": -9.456342776960167,
        "lon": 162.19037994810392,
        "alt_km": 420.85723078018873,
        "timestamp": "2025-12-16T10:53:44.205853+00:00",
        "meta_object_name": "STARLINK-35923",
        "meta_object_id": "2025-271AA",
        "meta_epoch": "2025-12-15T22:00:01.999584",
        "meta_mean_motion": 15.49258702,
        "meta_eccentricity": 0.00011604,
        "meta_inclination": 53.1589,
        "meta_ra_of_asc_node": 171.9339,
        "meta_arg_of_pericenter": 88.4901,
        "meta_mean_anomaly": 141.3192,
        "meta_ephemeris_type": 0,
        "meta_classification_type": "U",
        "meta_norad_cat_id": 66641,
        "meta_element_set_no": 999,
        "meta_rev_at_epoch": 475,
        "meta_bstar": 0.0014345679,
        "meta_mean_motion_dot": 0.00080016,
        "meta_mean_motion_ddot": 0,
        "tle_line1": "1 66641U 25271AA  25349.91668981  .00080016  00000+0  14346-2 0  9995",
        "tle_line2": "2 66641  53.1589 171.9339 0001160  88.4901 141.3192 15.49258702  4757"
      },
      "geometry": {
        "type": "Point",
        "coordinates": [
          162.19037994810392,
          -9.456342776960167
        ]
      }
    },
    {
      "type": "Feature",
      "properties": {
        "norad_id": 66642,
        "name": "STARLINK-35926",
        "group": "last-30-days",
        "lat": -10.972198822016273,
        "lon": 161.0109090190831,
        "alt_km": 420.7819120886079,
        "timestamp": "2025-12-16T10:53:44.205863+00:00",
        "meta_object_name": "STARLINK-35926",
        "meta_object_id": "2025-271AB",
        "meta_epoch": "2025-12-15T22:00:01.999584",
        "meta_mean_motion": 15.49258006,
        "meta_eccentricity": 7.921e-05,
        "meta_inclination": 53.1589,
        "meta_ra_of_asc_node": 171.9388,
        "meta_arg_of_pericenter": 66.9017,
        "meta_mean_anomaly": 160.9914,
        "meta_ephemeris_type": 0,
        "meta_classification_type": "U",
        "meta_norad_cat_id": 66642,
        "meta_element_set_no": 999,
        "meta_rev_at_epoch": 451,
        "meta_bstar": 0.0014500199,
        "meta_mean_motion_dot": 0.00080889,
        "meta_mean_motion_ddot": 0,
        "tle_line1": "1 66642U 25271AB  25349.91668981  .00080889  00000+0  14500-2 0  9996",
        "tle_line2": "2 66642  53.1589 171.9388 0000792  66.9017 160.9914 15.49258006  4511"
      },
      "geometry": {
        "type": "Point",
        "coordinates": [
          161.0109090190831,
          -10.972198822016273
        ]
      }
    },
    {
      "type": "Feature",
      "properties": {
        "norad_id": 66643,
        "name": "STARLINK-35918",
        "group": "last-30-days",
        "lat": -13.997726898188201,
        "lon": 158.6052967819937,
        "alt_km": 421.2009966790538,
        "timestamp": "2025-12-16T10:53:44.205875+00:00",
        "meta_object_name": "STARLINK-35918",
        "meta_object_id": "2025-271AC",
        "meta_epoch": "2025-12-15T22:00:01.999584",
        "meta_mean_motion": 15.49254162,
        "meta_eccentricity": 0.00012292,
        "meta_inclination": 53.159,
        "meta_ra_of_asc_node": 171.9471,
        "meta_arg_of_pericenter": 72.0093,
        "meta_mean_anomaly": 152.0608,
        "meta_ephemeris_type": 0,
        "meta_classification_type": "U",
        "meta_norad_cat_id": 66643,
        "meta_element_set_no": 999,
        "meta_rev_at_epoch": 475,
        "meta_bstar": 0.0014372534,
        "meta_mean_motion_dot": 0.00080155,
        "meta_mean_motion_ddot": 0,
        "tle_line1": "1 66643U 25271AC  25349.91668981  .00080155  00000+0  14373-2 0  9991",
        "tle_line2": "2 66643  53.1590 171.9471 0001229  72.0093 152.0608 15.49254162  4752"
      },
      "geometry": {
        "type": "Point",
        "coordinates": [
          158.6052967819937,
          -13.997726898188201
        ]
      }
    },
    {
      "type": "Feature",
      "properties": {
        "norad_id": 66644,
        "name": "STARLINK-35938",
        "group": "last-30-days",
        "lat": -12.482671409453015,
        "lon": 159.8192614707538,
        "alt_km": 421.0376839000419,
        "timestamp": "2025-12-16T10:53:44.205888+00:00",
        "meta_object_name": "STARLINK-35938",
        "meta_object_id": "2025-271AD",
        "meta_epoch": "2025-12-15T22:00:01.999584",
        "meta_mean_motion": 15.49255384,
        "meta_eccentricity": 6.422e-05,
        "meta_inclination": 53.1589,
        "meta_ra_of_asc_node": 171.9431,
        "meta_arg_of_pericenter": 74.3022,
        "meta_mean_anomaly": 151.6838,
        "meta_ephemeris_type": 0,
        "meta_classification_type": "U",
        "meta_norad_cat_id": 66644,
        "meta_element_set_no": 999,
        "meta_rev_at_epoch": 475,
        "meta_bstar": 0.0014286683,
        "meta_mean_motion_dot": 0.00079672,
        "meta_mean_motion_ddot": 0,
        "tle_line1": "1 66644U 25271AD  25349.91668981  .00079672  00000+0  14287-2 0  9998",
        "tle_line2": "2 66644  53.1589 171.9431 0000642  74.3022 151.6838 15.49255384  4759"
      },
      "geometry": {
        "type": "Point",
        "coordinates": [
          159.8192614707538,
          -12.482671409453015
        ]
      }
    }
  ]
}